[{"OBJECT_NAME":"KUIPER-00091","OBJECT_ID":"2025-151W","EPOCH":"2026-03-09T21:08:44.948256","MEAN_MOTION":14.79868428,"ECCENTRICITY":0.00010582,"INCLINATION":51.9005,"RA_OF_ASC_NODE":282.2615,"ARG_OF_PERICENTER":116.1118,"MEAN_ANOMALY":243.9954,"EPHEMERIS_TYPE":0,"CLASSIFICATION_TYPE":"U","NORAD_CAT_ID":64836,"ELEMENT_SET_NO":999,"REV_AT_EPOCH":3557,"BSTAR":0.00055851015,"MEAN_MOTION_DOT":4.033e-5,"MEAN_MOTION_DDOT":0},{"OBJECT_NAME":"SL-16 R\/B","OBJECT_ID":"1994-074B","EPOCH":"2026-03-09T23:54:25.867008","MEAN_MOTION":14.79408399,"ECCENTRICITY":0.00057986,"INCLINATION":97.7109,"RA_OF_ASC_NODE":99.8014,"ARG_OF_PERICENTER":209.3381,"MEAN_ANOMALY":210.8055,"EPHEMERIS_TYPE":0,"CLASSIFICATION_TYPE":"U","NORAD_CAT_ID":23343,"ELEMENT_SET_NO":999,"REV_AT_EPOCH":68729,"BSTAR":8.5933802e-5,"MEAN_MOTION_DOT":5.92e-6,"MEAN_MOTION_DDOT":0}]
